ONEWEB-0271             
1 48989U 21060Y   25312.39966323 -.00000132  00000+0 -37938-3 0  9991
2 48989  87.9012 272.7416 0002084  89.2595 270.8775 13.16593585210610
ONEWEB-0272             
1 48990U 21060Z   25312.42182775  .00000141  00000+0  33588-3 0  9993
2 48990  87.8994 272.7583 0001905  90.9441 269.1908 13.16596293210567
ONEWEB-0273             
1 48991U 21060AA  25312.44401705  .00000069  00000+0  14579-3 0  9991
2 48991  87.9006 272.7462 0002104  84.0915 276.0455 13.16593344210547
ONEWEB-0274             
1 48992U 21060AB  25312.31734125  .00000035  00000+0  57459-4 0  9991
2 48992  87.8989 272.7978 0001720  92.9104 267.2223 13.16595820210568
ONEWEB-0275             
1 48993U 21060AC  25312.38225287  .00000030  00000+0  45906-4 0  9992
2 48993  87.9005 272.7520 0001935  85.8860 274.2492 13.16596351210500
ONEWEB-0276             
1 48994U 21060AD  25312.41550510  .00000111  00000+0  25637-3 0  9995
2 48994  87.9002 272.7445 0002086  80.6829 279.4537 13.16595936210527
ONEWEB-0277             
1 48995U 21060AE  25312.42821094  .00000136  00000+0  32203-3 0  9999
2 48995  87.8994 272.7699 0001911  89.9321 270.2029 13.16596863210517
ONEWEB-0278             
1 48996U 21060AF  25312.41868347  .00000157  00000+0  37819-3 0  9992
2 48996  87.9002 272.7406 0001917  76.0353 284.0991 13.16592556210643
ONEWEB-0279             
1 48997U 21060AG  25312.42659568  .00000146  00000+0  34705-3 0  9996
2 48997  87.9011 272.7355 0001982  91.1381 268.9977 13.16594236210572
ONEWEB-0280             
1 48998U 21060AH  25312.44164701  .00000032  00000+0  49252-4 0  9997
2 48998  87.9009 272.7389 0002319  76.3987 283.7402 13.16595028210511
ONEWEB-0281             
1 48999U 21060AJ  25312.44718278  .00000016  00000+0  94897-5 0  9990
2 48999  87.9006 272.7339 0001804  84.0199 276.1138 13.16593536210584
ONEWEB-0282             
1 49000U 21060AK  25312.40126762  .00000088  00000+0  19725-3 0  9995
2 49000  87.9002 272.7542 0002082  84.3131 275.8237 13.16595693210557
ONEWEB-0283             
1 49001U 21060AL  25312.31418787  .00000064  00000+0  13365-3 0  9995
2 49001  87.9003 272.7720 0002009  87.3660 272.7701 13.16593929210558
ONEWEB-0284             
1 49002U 21060AM  25312.45984995  .00000035  00000+0  58962-4 0  9991
2 49002  87.9012 272.7297 0002170  74.7910 285.3461 13.16595196210556
ONEWEB-0285             
1 49075U 21075A   25312.27746281 -.00000320  00000+0 -92614-3 0  9991
2 49075  87.8974  34.5441 0001803 100.5940 259.5392 13.12443706206231
ONEWEB-0286             
1 49076U 21075B   25312.48805257  .00000047  00000+0  95727-4 0  9997
2 49076  87.8964  34.5368 0001596 100.3470 259.7838 13.12455565205618
ONEWEB-0287             
1 49077U 21075C   25312.26834410  .00000065  00000+0  13439-3 0  9996
2 49077  87.9136  49.7936 0001268  95.0004 265.1272 13.17651625204532
ONEWEB-0288             
1 49078U 21075D   25312.46387556  .00000344  00000+0  92102-3 0  9997
2 49078  87.8975  34.5022 0001774  96.5931 263.5400 13.12440817206236
ONEWEB-0289             
1 49079U 21075E   25312.30701862  .00000038  00000+0  65811-4 0  9999
2 49079  87.9125  49.8049 0002013  91.7889 268.3473 13.17650574205116
ONEWEB-0290             
1 49080U 21075F   25312.50795894  .00000093  00000+0  20581-3 0  9996
2 49080  87.9141  49.7241 0002306  96.3959 263.7435 13.17651026204550
ONEWEB-0291             
1 49081U 21075G   25312.26496497  .00000094  00000+0  20785-3 0  9994
2 49081  87.9139  49.7786 0001594  88.6324 271.4991 13.17650657204518
ONEWEB-0293             
1 49082U 21075H   25312.51807766  .00000054  00000+0  10661-3 0  9996
2 49082  87.9132  49.7526 0001841  98.3054 261.8287 13.17651795204578
ONEWEB-0294             
1 49083U 21075J   25312.24164795  .00000153  00000+0  39013-3 0  9997
2 49083  87.8977  34.5468 0002135  91.3883 268.7490 13.12441149205592
ONEWEB-0295             
1 49084U 21075K   25312.51724172  .00000038  00000+0  64703-4 0  9996
2 49084  87.9134  49.7576 0001537  87.9786 272.1521 13.17649448204539
ONEWEB-0296             
1 49085U 21075L   25312.22220159  .00000456  00000+0  12323-2 0  9994
2 49085  87.8980  34.5565 0001764  85.1395 274.9935 13.12443615205595
ONEWEB-0297             
1 49086U 21075M   25312.48170764 -.00000250  00000+0 -73163-3 0  9993
2 49086  87.8967  34.5385 0001696 100.4233 259.7087 13.12440741206235
ONEWEB-0298             
1 49087U 21075N   25312.52158944  .00000164  00000+0  38926-3 0  9995
2 49087  87.9129  49.7524 0001702 103.3643 256.7679 13.17651879204564
ONEWEB-0299             
1 49088U 21075P   25312.29533825  .00000464  00000+0  11630-2 0  9990
2 49088  87.9152  49.7574 0001671 103.0334 257.0984 13.17649241204513
ONEWEB-0300             
1 49089U 21075Q   25312.47360404  .00000021  00000+0  23502-4 0  9994
2 49089  87.8975  34.4971 0001690 112.7754 247.3554 13.12440568206256
ONEWEB-0301             
1 49090U 21075R   25312.45738771  .00000469  00000+0  12690-2 0  9990
2 49090  87.8970  34.5032 0001708 116.1347 243.9958 13.12444735205617
ONEWEB-0302             
1 49091U 21075S   25312.21570127  .00000466  00000+0  12598-2 0  9998
2 49091  87.8973  34.5589 0001971  91.9195 268.2159 13.12443112205566
ONEWEB-0304             
1 49092U 21075T   25312.27002517  .00000028  00000+0  40084-4 0  9995
2 49092  87.9135  49.7915 0001582  99.2843 260.8467 13.17651496204489
ONEWEB-0305             
1 49093U 21075U   25312.26326755  .00000081  00000+0  17447-3 0  9993
2 49093  87.9137  49.7703 0001391  91.3559 268.7732 13.17651597204510
ONEWEB-0308             
1 49094U 21075V   25312.51416220  .00000228  00000+0  59785-3 0  9993
2 49094  87.8975  34.4925 0001777 101.8686 258.2642 13.12442982205610
ONEWEB-0309             
1 49095U 21075W   25312.26665468  .00000061  00000+0  12317-3 0  9991
2 49095  87.9135  49.7857 0001955  91.2594 268.8761 13.17650159204486
ONEWEB-0310             
1 49096U 21075X   25312.22381516  .00000555  00000+0  15082-2 0  9996
2 49096  87.8966  34.5897 0001823  98.0988 262.0347 13.12443879206202
ONEWEB-0311             
1 49097U 21075Y   25312.50119905 -.00000015  00000+0 -71015-4 0  9992
2 49097  87.9141  49.7362 0001308  96.6147 263.5133 13.17647788204569
ONEWEB-0312             
1 49098U 21075Z   25312.28858507  .00000089  00000+0  19512-3 0  9998
2 49098  87.9138  49.8079 0001575  89.1325 270.9987 13.17651057204511
ONEWEB-0313             
1 49099U 21075AA  25312.29351595  .00000087  00000+0  19207-3 0  9994
2 49099  87.9125  49.8141 0001617  98.2025 261.9290 13.17650906204501
ONEWEB-0314             
1 49100U 21075AB  25312.25990477  .00000105  00000+0  23792-3 0  9996
2 49100  87.9135  49.7683 0001500  88.7603 271.3701 13.17649739204472
ONEWEB-0315             
1 49101U 21075AC  25312.50280544 -.00000144  00000+0 -43509-3 0  9995
2 49101  87.8972  34.4816 0001362 102.6121 257.5160 13.12443868206227
ONEWEB-0316             
1 49102U 21075AD  25312.43413159  .00000099  00000+0  21849-3 0  9998
2 49102  87.9222  19.3122 0001703  99.7281 260.4043 13.18688252208118
ONEWEB-0317             
1 49103U 21075AE  25312.26759291 -.00000406  00000+0 -11642-2 0  9993
2 49103  87.8991  34.5466 0002450  97.8578 262.2829 13.12441285206217
ONEWEB-0318             
1 49104U 21075AF  25312.43082353  .00000074  00000+0  15397-3 0  9992
2 49104  87.9223  19.2999 0001592  99.3706 260.7606 13.18687767208079
ONEWEB-0319             
1 49105U 21075AG  25312.50289178  .00000025  00000+0  31064-4 0  9991
2 49105  87.9134  49.7578 0001310  96.6513 263.4767 13.17651009204541
ONEWEB-0323             
1 49106U 21075AH  25312.48658068 -.00000346  00000+0 -99744-3 0  9993
2 49106  87.8974  34.4878 0001129  86.7160 273.4098 13.12442683205600
ONEWEB-0329             
1 49107U 21075AJ  25312.35945152 -.00000004  00000+0 -42833-4 0  9992
2 49107  87.9131  49.7888 0001600  96.8888 263.2425 13.17647535204507
ONEWEB-0330             
1 49108U 21075AK  25312.28436988  .00000113  00000+0  25862-3 0  9998
2 49108  87.9131  49.8086 0001764  93.4195 266.7138 13.17649321204531
ONEWEB-0292             
1 49186U 21083A   25312.40288647 -.00000248  00000+0 -71396-3 0  9998
2 49186  87.9010   4.1457 0001690  97.9874 262.1447 13.13469524201946
ONEWEB-0303             
1 49187U 21083B   25312.42753313  .00000014  00000+0  17746-5 0  9998
2 49187  87.9224  19.3017 0001603  99.1054 261.0259 13.18687313200886
ONEWEB-0306             
1 49188U 21083C   25312.49351296  .00000007  00000+0 -14924-4 0  9997
2 49188  87.9226  19.2738 0002024  99.5845 260.5515 13.18687603200935
ONEWEB-0307             
1 49189U 21083D   25312.39695807 -.00000179  00000+0 -52457-3 0  9999
2 49189  87.9009   4.1398 0001792  99.2950 260.8382 13.13470696201949
ONEWEB-0320             
1 49190U 21083E   25312.42504542  .00005236  00000+0  13247-1 0  9999
2 49190  87.9221  19.3166 0001974  99.3432 260.7924 13.18656951200884
ONEWEB-0321             
1 49191U 21083F   25312.44564860  .00000002  00000+0 -26618-4 0  9997
2 49191  87.9188 318.4572 0002152  92.7644 267.3735 13.20772770207692
ONEWEB-0322             
1 49192U 21083G   25312.39272214 -.00000041  00000+0 -14728-3 0  9993
2 49192  87.9013   4.1412 0002274 105.3367 254.8013 13.13468185201935
ONEWEB-0324             
1 49193U 21083H   25312.48691690  .00000010  00000+0 -85733-5 0  9998
2 49193  87.9222  19.2819 0001814  94.3184 265.8155 13.18687342200918
ONEWEB-0325             
1 49194U 21083J   25312.18669448  .00000071  00000+0  14691-3 0  9991
2 49194  87.9224  19.3599 0001899 101.9135 258.2210 13.18687748200885
ONEWEB-0326             
1 49195U 21083K   25312.42931547  .00000069  00000+0  14144-3 0  9991
2 49195  87.9222  19.2993 0001484 102.6691 257.4607 13.18687280200901
ONEWEB-0327             
1 49196U 21083L   25312.42904505  .00000113  00000+0  25509-3 0  9993
2 49196  87.9214  19.3215 0001504 107.7449 252.3847 13.18687552200925
